NORAD_CAT_ID,OBJECT_NAME,OBJECT_TYPE,EPOCH,MEAN_MOTION,ECCENTRICITY,INCLINATION,RA_OF_ASC_NODE,ARG_OF_PERICENTER,MEAN_ANOMALY,BSTAR,MEAN_MOTION_DOT,MEAN_MOTION_DDOT,TLE_LINE0,TLE_LINE1,TLE_LINE2,SEMIMAJOR_AXIS,PERIOD,APOGEE,PERIGEE,DECAYED
51885.0,STARLINK-3584,PAYLOAD,2023-12-30 04:26:26,15.08835152,0.0001825,53.2172,352.7178,123.7946,236.322,0.00037198,5.636e-05,0.0,0 STARLINK-3584,1 51885U 22022AK  23364.18502718  .00005636  00000-0  37198-3 0  9996,2 51885  53.2172 352.7178 0001825 123.7946 236.3220 15.08835152102391,6917.895,95.438,541.023,538.498,0.0
51885.0,STARLINK-3584,PAYLOAD,2023-12-30 09:12:35,15.08846144,0.0001508,53.2174,351.8326,101.4043,258.7118,0.00020317,2.947e-05,0.0,0 STARLINK-3584,1 51885U 22022AK  23364.38374284  .00002947  00000-0  20317-3 0  9990,2 51885  53.2174 351.8326 0001508 101.4043 258.7118 15.08846144102428,6917.862,95.437,540.77,538.683,0.0
51885.0,STARLINK-3584,PAYLOAD,2023-12-31 02:41:50,15.08839862,0.0001548,53.2176,348.5579,105.9247,254.1916,2.7372e-05,1.48e-06,0.0,0 STARLINK-3584,1 51885U 22022AK  23365.11238606  .00000148  00000-0  27372-4 0  9999,2 51885  53.2176 348.5579 0001548 105.9247 254.1916 15.08839862102539,6917.881,95.438,540.817,538.675,0.0
51885.0,STARLINK-3584,PAYLOAD,2023-12-31 09:03:22,15.08841442,0.0001509,53.218,347.3697,103.3726,256.7434,3.9929e-05,3.48e-06,0.0,0 STARLINK-3584,1 51885U 22022AK  23365.37734588  .00000348  00000-0  39929-4 0  9990,2 51885  53.2180 347.3697 0001509 103.3726 256.7434 15.08841442102577,6917.876,95.437,540.785,538.697,0.0
51885.0,STARLINK-3584,PAYLOAD,2024-01-01 04:08:00,15.08844161,0.0001537,53.2182,343.8013,96.0674,264.0493,0.00012284,1.668e-05,0.0,0 STARLINK-3584,1 51885U 22022AK  24001.17222520  .00001668  00000-0  12284-3 0  9994,2 51885  53.2182 343.8013 0001537  96.0674 264.0493 15.08844161102694,6917.868,95.437,540.796,538.669,0.0
51885.0,STARLINK-3584,PAYLOAD,2024-01-01 23:12:38,15.0884309,0.0001429,53.2177,340.2382,94.7773,265.3382,3.801e-05,3.17e-06,0.0,0 STARLINK-3584,1 51885U 22022AK  24001.96710656  .00000317  00000-0  38010-4 0  9999,2 51885  53.2177 340.2382 0001429  94.7773 265.3382 15.08843090102818,6917.871,95.437,540.725,538.747,0.0
51885.0,STARLINK-3584,PAYLOAD,2024-01-02 05:34:10,15.08846698,0.0001387,53.2178,339.0483,92.4942,267.6209,9.019e-05,1.148e-05,0.0,0 STARLINK-3584,1 51885U 22022AK  24002.23206433  .00001148  00000-0  90190-4 0  9993,2 51885  53.2178 339.0483 0001387  92.4942 267.6209 15.08846698102857,6917.86,95.437,540.684,538.765,0.0
51885.0,STARLINK-3584,PAYLOAD,2024-01-02 21:28:02,15.08838953,0.0001435,53.2175,336.0757,96.851,263.2646,7.0657e-05,8.37e-06,0.0,0 STARLINK-3584,1 51885U 22022AK  24002.89446764  .00000837  00000-0  70657-4 0  9998,2 51885  53.2175 336.0757 0001435  96.8510 263.2646 15.08838953102951,6917.884,95.438,540.741,538.756,0.0
51885.0,STARLINK-3584,PAYLOAD,2024-01-03 03:49:34,15.08840079,0.000143,53.2183,334.8841,100.1679,259.9474,6.7807e-05,7.91e-06,0.0,0 STARLINK-3584,1 51885U 22022AK  24003.15943015  .00000791  00000-0  67807-4 0  9991,2 51885  53.2183 334.8841 0001430 100.1679 259.9474 15.08840079102997,6917.88,95.438,540.734,538.756,0.0
51885.0,STARLINK-3584,PAYLOAD,2024-01-03 07:00:20,15.0884359,0.0001422,53.2184,334.2891,95.5461,264.5694,7.2207e-05,8.62e-06,0.0,0 STARLINK-3584,1 51885U 22022AK  24003.29190777  .00000862  00000-0  72207-4 0  9994,2 51885  53.2184 334.2891 0001422  95.5461 264.5694 15.08843590103015,6917.869,95.437,540.718,538.751,0.0
51885.0,STARLINK-3584,PAYLOAD,2024-01-04 05:15:44,15.08847396,0.0001434,53.2186,330.1265,88.3682,271.7474,9.3922e-05,1.207e-05,0.0,0 STARLINK-3584,1 51885U 22022AK  24004.21926542  .00001207  00000-0  93922-4 0  9995,2 51885  53.2186 330.1265 0001434  88.3682 271.7474 15.08847396103154,6917.858,95.437,540.715,538.731,0.0
51885.0,STARLINK-3584,PAYLOAD,2024-01-04 21:09:36,15.08839389,0.0001498,53.2188,327.154,80.3992,279.717,0.000124,1.686e-05,0.0,0 STARLINK-3584,1 51885U 22022AK  24004.88166954  .00001686  00000-0  12400-3 0  9993,2 51885  53.2188 327.1540 0001498  80.3992 279.7170 15.08839389103259,6917.882,95.438,540.784,538.711,0.0
51885.0,STARLINK-3584,PAYLOAD,2024-01-05 06:41:54,15.08848731,0.0001446,53.2187,325.3688,85.2674,274.8484,0.00013615,1.88e-05,0.0,0 STARLINK-3584,1 51885U 22022AK  24005.27910343  .00001880  00000-0  13615-3 0  9991,2 51885  53.2187 325.3688 0001446  85.2674 274.8484 15.08848731103317,6917.854,95.437,540.719,538.718,0.0
51885.0,STARLINK-3584,PAYLOAD,2024-01-06 06:32:41,15.08847729,0.0001486,53.2182,320.9063,113.718,246.3968,9.4549e-05,1.217e-05,0.0,0 STARLINK-3584,1 51885U 22022AK  24006.27270231  .00001217  00000-0  94549-4 0  9997,2 51885  53.2182 320.9063 0001486 113.7180 246.3968 15.08847729103466,6917.857,95.437,540.75,538.694,0.0
51885.0,STARLINK-3584,PAYLOAD,2024-01-07 03:12:42,15.08840933,0.0001564,53.2181,317.0397,115.8167,244.2987,1.4371e-05,-5.9e-07,0.0,0 STARLINK-3584,1 51885U 22022AK  24007.13382820 -.00000059  00000-0  14371-4 0  9990,2 51885  53.2181 317.0397 0001564 115.8167 244.2987 15.08840933103599,6917.878,95.437,540.824,538.661,0.0
51885.0,STARLINK-3584,PAYLOAD,2024-01-07 06:23:29,15.088417,0.0001436,53.2182,316.4471,105.1634,254.9518,3.5842e-05,2.83e-06,0.0,0 STARLINK-3584,1 51885U 22022AK  24007.26630828  .00000283  00000-0  35842-4 0  9992,2 51885  53.2182 316.4471 0001436 105.1634 254.9518 15.08841700103619,6917.875,95.437,540.734,538.747,0.0
51885.0,STARLINK-3584,PAYLOAD,2024-01-08 06:14:16,15.08842576,0.0001496,53.2184,311.9852,112.2029,247.9122,6.2797e-05,7.12e-06,0.0,0 STARLINK-3584,1 51885U 22022AK  24008.25990767  .00000712  00000-0  62797-4 0  9999,2 51885  53.2184 311.9852 0001496 112.2029 247.9122 15.08842576103768,6917.873,95.437,540.772,538.703,0.0
51885.0,STARLINK-3584,PAYLOAD,2024-01-09 01:18:55,15.08821023,0.0001614,53.2196,308.4119,115.9942,244.1217,-7.764e-05,-1.523e-05,0.0,0 STARLINK-3584,1 51885U 22022AK  24009.05481173 -.00001523  00000-0 -77640-4 0  9990,2 51885  53.2196 308.4119 0001614 115.9942 244.1217 15.08821023103885,6917.938,95.439,540.92,538.687,0.0
51885.0,STARLINK-3584,PAYLOAD,2024-01-09 06:05:05,15.08815838,0.0001379,53.2184,307.5272,96.5113,263.6036,-0.00010956,-2.03e-05,0.0,0 STARLINK-3584,1 51885U 22022AK  24009.25354050 -.00002030  00000-0 -10956-3 0  9995,2 51885  53.2184 307.5272 0001379  96.5113 263.6036 15.08815838103910,6917.954,95.439,540.773,538.865,0.0
51885.0,STARLINK-3584,PAYLOAD,2024-01-09 18:48:09,15.08833677,0.0001922,53.2189,305.1582,34.5505,325.5612,0.00012053,1.63e-05,0.0,0 STARLINK-3584,1 51885U 22022AK  24009.78344748  .00001630  00000-0  12053-3 0  9999,2 51885  53.2189 305.1582 0001922  34.5505 325.5612 15.08833677103991,6917.9,95.438,541.094,538.435,0.0
51885.0,STARLINK-3584,PAYLOAD,2024-01-10 01:09:40,15.08856627,0.0001557,53.2184,303.9567,110.9323,249.1836,0.0002094,3.048e-05,0.0,0 STARLINK-3584,1 51885U 22022AK  24010.04838791  .00003048  00000-0  20940-3 0  9995,2 51885  53.2184 303.9567 0001557 110.9323 249.1836 15.08856627104031,6917.83,95.437,540.772,538.617,0.0
51885.0,STARLINK-3584,PAYLOAD,2024-01-11 01:00:28,15.08838174,0.0001393,53.2177,299.4981,97.6467,262.4683,0.00029812,4.46e-05,0.0,0 STARLINK-3584,1 51885U 22022AK  24011.04199991  .00004460  00000-0  29812-3 0  9994,2 51885  53.2177 299.4981 0001393  97.6467 262.4683 15.08838174104181,6917.886,95.438,540.715,538.787,0.0
51885.0,STARLINK-3584,PAYLOAD,2024-01-11 04:11:14,15.08841134,0.0001412,53.2177,298.903,98.5672,261.548,0.00031098,4.665e-05,0.0,0 STARLINK-3584,1 51885U 22022AK  24011.17447754  .00004665  00000-0  31098-3 0  9997,2 51885  53.2177 298.9030 0001412  98.5672 261.5480 15.08841134104208,6917.877,95.437,540.719,538.765,0.0
51885.0,STARLINK-3584,PAYLOAD,2024-01-12 04:02:01,15.08861472,0.0001492,53.2185,294.4413,100.3931,259.723,4.0203e-06,-2.24e-06,0.0,0 STARLINK-3584,1 51885U 22022AK  24012.16806993 -.00000224  00000-0  40203-5 0  9999,2 51885  53.2185 294.4413 0001492 100.3931 259.7230 15.08861472104356,6917.815,95.436,540.712,538.648,0.0
51885.0,STARLINK-3584,PAYLOAD,2024-01-12 21:31:16,15.08838279,0.0001756,53.2208,291.1628,142.5491,217.5624,-9.7794e-05,-1.844e-05,0.0,0 STARLINK-3584,1 51885U 22022AK  24012.89671703 -.00001844  00000-0 -97794-4 0  9994,2 51885  53.2208 291.1628 0001756 142.5491 217.5624 15.08838279104466,6917.886,95.438,540.965,538.536,0.0
51885.0,STARLINK-3584,PAYLOAD,2024-01-13 03:52:49,15.08842507,0.000173,53.2191,289.9763,91.0761,269.0429,2.6793e-05,1.38e-06,0.0,0 STARLINK-3584,1 51885U 22022AK  24013.16167990  .00000138  00000-0  26793-4 0  9997,2 51885  53.2191 289.9763 0001730  91.0761 269.0429 15.08842507104501,6917.873,95.437,540.935,538.541,0.0
51885.0,STARLINK-3584,PAYLOAD,2024-01-13 18:11:17,15.08836837,0.0001607,53.2171,287.3049,108.716,251.4007,-3.1534e-05,-7.9e-06,0.0,0 STARLINK-3584,1 51885U 22022AK  24013.75784571 -.00000790  00000-0 -31534-4 0  9997,2 51885  53.2171 287.3049 0001607 108.7160 251.4007 15.08836837104595,6917.89,95.438,540.867,538.643,0.0
51885.0,STARLINK-3584,PAYLOAD,2024-01-14 03:43:35,15.08851503,0.0001402,53.2168,285.5216,108.7178,251.3966,0.00019582,2.831e-05,0.0,0 STARLINK-3584,1 51885U 22022AK  24014.15527607  .00002831  00000-0  19582-3 0  9991,2 51885  53.2168 285.5216 0001402 108.7178 251.3966 15.08851503104656,6917.845,95.437,540.68,538.74,0.0
51885.0,STARLINK-3584,PAYLOAD,2024-01-14 22:48:13,15.0884963,0.0001428,53.217,281.9519,104.9563,255.1588,0.00015499,2.18e-05,0.0,0 STARLINK-3584,1 51885U 22022AK  24014.95015659  .00002180  00000-0  15499-3 0  9998,2 51885  53.2170 281.9519 0001428 104.9563 255.1588 15.08849630104772,6917.851,95.437,540.704,538.728,0.0
51885.0,STARLINK-3584,PAYLOAD,2024-01-15 03:34:22,15.08856292,0.000146,53.2175,281.0577,98.5065,261.6092,0.00025198,3.726e-05,0.0,0 STARLINK-3584,1 51885U 22022AK  24015.14887227  .00003726  00000-0  25198-3 0  9992,2 51885  53.2175 281.0577 0001460  98.5065 261.6092 15.08856292104801,6917.831,95.437,540.706,538.686,0.0
